#aV2007  2 15  0  0   .00000000      96 DD+AD WGS84 FIT  NGA
## 1414 345600.00000000   900.00000000 54146  .0000000000000
+   30     1  2  3  4  5  6  7  8  9 10 11 12 13 14 16 17 18
+         19 20 21 22 23 24 25 26 27 28 29 30 31  0  0  0  0
+          0  0  0  0  0  0  0  0  0  0  0  0  0  0  0  0  0
+          0  0  0  0  0  0  0  0  0  0  0  0  0  0  0  0  0
+          0  0  0  0  0  0  0  0  0  0  0  0  0  0  0  0  0
++         0  0  0  0  0  0  0  0  0  0  0  0  0  0  0  0  0
++         0  0  0  0  0  0  0  0  0  0  0  0  0  0  0  0  0
++         0  0  0  0  0  0  0  0  0  0  0  0  0  0  0  0  0
++         0  0  0  0  0  0  0  0  0  0  0  0  0  0  0  0  0
++         0  0  0  0  0  0  0  0  0  0  0  0  0  0  0  0  0
%c cc cc ccc ccc cccc cccc cccc cccc ccccc ccccc ccccc ccccc
%c cc cc ccc ccc cccc cccc cccc cccc ccccc ccccc ccccc ccccc
%f  0.0000000  0.000000000  0.00000000000  0.000000000000000
%f  0.0000000  0.000000000  0.00000000000  0.000000000000000
%i    0    0    0    0      0      0      0      0         0
%i    0    0    0    0      0      0      0      0         0
/*      NGA, ST. LOUIS,MO.                                  
/*   EPHEMERIS COMPUTED FROM  3 DAYS OF DATA                
/* CCCCCCCCCCCCCCCCCCCCCCCCCCCCCCCCCCCCCCCCCCCCCCCCCCCCCCCCC
/* CCCCCCCCCCCCCCCCCCCCCCCCCCCCCCCCCCCCCCCCCCCCCCCCCCCCCCCCC
*  2007  2 15  2 15   .00000000                                                 
P  1 -18402.430108 -14358.338537  12939.953179    107.850100                    
V  1  15766.286098   3196.372049  26335.421639       .024358                    
P  2  13930.064801  20197.308782 -10727.112463     82.437115                    
V  2   1225.114830  13407.743522  27180.889936       .033251                    
P  3 -21849.615007 -11315.991379 -10614.493333     13.930279                    
V  3  13454.393123  -1128.029229 -26682.908721       .058635                    
P  4   5375.113845  25714.763787   2122.108875      3.910530                    
V  4  -4189.159326  -1773.122670  31515.999608       .019017                    
P  5  20567.508385 -10912.069739  12415.403333     35.439709                    
V  5  -7907.508211  14490.466850  25516.647324       .062726                    
P  6  19053.727854  -8351.309399 -16353.043128     28.885341                    
V  6  20231.566104   6700.567783  19872.502390       .262401                    
P  7  15886.577935 -10665.775096 -18116.977393    415.332117                    
V  7  23007.596248   6201.682532  16140.996920      -.123070                    
P  8  -2397.354535  23617.008462 -11568.237334    -96.752042                    
V  8  -5600.303167 -13715.693384 -27536.521417      -.013117                    
P  9  16027.603197   3538.614701  20352.831303     57.631722                    
V  9   7648.268190  26020.161991 -10031.128763       .015782                    
P 10  13174.116058   7939.611491 -21787.737136     97.475282                    
V 10 -19321.632853  19356.168362  -4333.556940       .006281                    
P 11 -17532.759032    305.947155  19901.210502      7.227385                    
V 11  -9925.656152 -23780.488570  -8044.102882       .012862                    
P 12  21228.012753  -8294.035680  13711.783062    -50.825227                    
V 12 -10378.787471  13944.856650  24738.844567       .035023                    
P 13 -16202.843646   8482.822773 -19333.812668    143.658842                    
V 13 -23127.722666  -7476.979867  16223.138950       .039783                    
P 14  -2763.961096 -15438.797508  21530.646685      8.252605                    
V 14  26244.155186   6572.975310   8048.546928       .013728                    
P 16  -7644.418174 -13479.210583 -21472.749517    122.386564                    
V 16  19689.483367 -19164.149762   5129.709740       .035998                    
P 17   2144.317615  15870.059133  21205.579864     78.735298                    
V 17 -26229.297451  -6058.150879   7068.163322      -.014462                    
P 18  16552.018116 -20096.898258   4426.045681   -253.691366                    
V 18   6201.943455  -1482.769592 -31160.314747       .001578                    
P 19 -25398.920700  -7952.636434    146.946451      4.948404                    
V 19    789.412393  -2728.352140 -31618.069355       .041170                    
P 20 -21316.106386  10347.377919  11856.445979    -22.375412                    
V 20   8571.930158 -12859.519351  26462.025091      -.001918                    
P 21   7490.569833 -19196.938120 -16342.828199     71.300653                    
V 21   7693.057944  19951.232604 -20346.679418       .009591                    
P 22   7258.729758 -21061.751648  14604.848277    167.564894                    
V 22  14887.231319 -10885.942934 -23364.888572       .018046                    
P 23 -24170.197719   1863.432927 -11154.516579    150.062066                    
V 23 -13063.358618  -5323.115453  27425.065801       .016548                    
P 24  15247.679872  -1406.719420 -21517.533628     77.457427                    
V 24   5898.853664  27138.946858   2678.995574       .031414                    
P 25 -14812.105548 -19675.917141  -9389.347764    345.082633                    
V 25  -1934.626929 -12694.577076  28613.177297      -.168572                    
P 26  25298.586591   8843.637361  -2448.901666    -43.732981                    
V 26  -2795.709571    567.108425 -31852.607963      -.185457                    
P 27  -6924.740672  17664.534671 -17835.003489     94.203705                    
V 27  -9792.494551 -22046.969182 -17675.748962       .020413                    
P 28 -10172.548120  21546.044221  11673.750738      7.347253                    
V 28 -12058.984691   8378.039000 -27051.200200      -.008039                    
P 29  23996.889187  10006.227792  -6053.390607    349.297356                    
V 29  -8040.877249   -313.792094 -30904.317045       .100456                    
P 30  19267.227085 -17811.897731   3399.516689     25.436733                    
V 30   -634.567586   5755.694130  31104.651028       .010358                    
P 31  -7307.357064 -25503.226020    171.947249      8.224176                    
V 31   2750.218166   -824.575880  31791.017805       .036981                    
EOF
